[{"OBJECT_NAME":"KINEIS-3D","OBJECT_ID":"2024-172B","EPOCH":"2026-03-09T16:57:03.691008","MEAN_MOTION":14.7232147,"ECCENTRICITY":0.00025426,"INCLINATION":98.029,"RA_OF_ASC_NODE":159.7187,"ARG_OF_PERICENTER":107.0983,"MEAN_ANOMALY":253.0503,"EPHEMERIS_TYPE":0,"CLASSIFICATION_TYPE":"U","NORAD_CAT_ID":61221,"ELEMENT_SET_NO":999,"REV_AT_EPOCH":7871,"BSTAR":0.00047460024,"MEAN_MOTION_DOT":2.952e-5,"MEAN_MOTION_DDOT":0},{"OBJECT_NAME":"NOAA 16 DEB","OBJECT_ID":"2000-055PH","EPOCH":"2026-03-08T12:48:54.131904","MEAN_MOTION":14.6914287,"ECCENTRICITY":0.00283744,"INCLINATION":98.9479,"RA_OF_ASC_NODE":283.5548,"ARG_OF_PERICENTER":16.5831,"MEAN_ANOMALY":343.6293,"EPHEMERIS_TYPE":0,"CLASSIFICATION_TYPE":"U","NORAD_CAT_ID":41668,"ELEMENT_SET_NO":999,"REV_AT_EPOCH":51712,"BSTAR":0.0043380971,"MEAN_MOTION_DOT":0.00025703,"MEAN_MOTION_DDOT":0}]
